QIANFAN-25              
1 61558U 24185G   25348.92911475  .00000402  00000+0  23719-3 0  9995
2 61558  88.9808  77.9427 0007675 314.0264  46.0285 14.05910460 69818
QIANFAN-26              
1 61559U 24185H   25348.92727747  .00000197  00000+0  18401-3 0  9996
2 61559  88.9813  79.5154 0005682  25.4772 334.6674 13.77813820 68977
QIANFAN-27              
1 61560U 24185J   25348.92180827  .00000624  00000+0  24888-3 0  9991
2 61560  88.9807  76.6885 0005596 284.0163  76.0409 14.27336041 70474
QIANFAN-28              
1 61561U 24185K   25348.90291962  .00000982  00000+0  39011-3 0  9994
2 61561  88.9825  76.6941 0005008 282.5222  77.5412 14.28039778 70484
QIANFAN-29              
1 61562U 24185L   25348.88686347  .00000192  00000+0  27778-3 0  9997
2 61562  88.9791  81.0895 0011031  53.6426 306.5742 13.51012181 68089
QIANFAN-30              
1 61563U 24185M   25348.93744360  .00000066  00000+0  85125-4 0  9995
2 61563  88.9811  80.6104 0008270  43.3798 316.8003 13.49988682 68360
QIANFAN-31              
1 61564U 24185N   25348.89296884  .00000031  00000+0  25779-4 0  9995
2 61564  88.9794  80.4137 0007475  38.7341 321.4349 13.57966861 68452
QIANFAN-32              
1 61565U 24185P   25348.90468583  .00000101  00000+0  13868-3 0  9998
2 61565  88.9854  80.7486 0010769  64.5247 295.7017 13.50735897 68330
